OBJECT_NAME,OBJECT_ID,EPOCH,MEAN_MOTION,ECCENTRICITY,INCLINATION,RA_OF_ASC_NODE,ARG_OF_PERICENTER,MEAN_ANOMALY,EPHEMERIS_TYPE,CLASSIFICATION_TYPE,NORAD_CAT_ID,ELEMENT_SET_NO,REV_AT_EPOCH,BSTAR,MEAN_MOTION_DOT,MEAN_MOTION_DDOT
SL-16 R/B,1996-051B,2026-06-16T17:57:14.239872,14.12445706,.0015434,70.7640,325.5779,337.5418,22.5024,0,U,24298,999,53563,.84208E-4,.106E-5,0
ORBVIEW 2 (SEASTAR),1997-037A,2026-06-16T17:47:17.769696,14.35553052,.0003178,98.8686,334.7478,117.0163,243.1346,0,U,24883,999,52268,.70005E-4,.155E-5,0
SL-16 R/B,1998-043G,2026-06-16T20:55:22.689696,14.26068563,.0010944,98.8363,122.0282,87.1494,273.0938,0,U,25400,999,45312,.33164E-4,.34E-6,0
SL-16 R/B,1998-045B,2026-06-16T17:47:43.579104,14.16203322,.000941,71.0118,333.2672,242.1722,117.8448,0,U,25407,999,44112,-.10095E-3,-.248E-5,0
ISS (ZARYA),1998-067A,2026-06-16T20:48:26.492256,15.49265361,.0004749,51.6339,301.6783,194.3570,165.7284,0,U,25544,999,57170,.15124E-3,.7968E-4,0
CZ-4B R/B,1999-025C,2026-06-16T21:04:21.264096,14.18283455,.0038076,98.6484,209.7243,60.5421,113.5857,0,U,25732,999,40222,.39092E-4,.38E-6,0
OKEAN-O,1999-039A,2026-06-16T17:44:32.210880,14.80466787,.0001627,97.9317,226.5423,72.3818,287.7572,0,U,25860,999,44904,.71435E-4,.494E-5,0
SL-16 R/B,1999-039B,2026-06-16T16:39:15.403392,14.81844706,.0013512,97.9838,226.5583,298.6652,61.3202,0,U,25861,999,45152,.55766E-4,.387E-5,0
DELTA 2 R/B,1999-041E,2026-06-16T12:55:18.312960,14.12015127,.05008512,51.7657,266.3886,280.0985,74.3822,0,U,25876,999,37699,.12068564E-3,.514E-5,0
HELIOS 1B,1999-064A,2026-06-16T16:59:24.209376,14.88005499,.000249,98.1615,72.8338,92.0013,268.1487,0,U,25977,999,69998,.1293E-3,.1128E-4,0
TERRA,1999-068A,2026-06-16T21:22:47.254944,14.61102929,.0001555,97.9457,217.4488,190.4186,284.6770,0,U,25994,999,40956,.75513E-4,.327E-5,0
SL-16 R/B,2000-006B,2026-06-16T15:23:27.188160,14.15834046,.0015506,71.0021,249.7729,23.7948,336.3889,0,U,26070,999,36256,-.11146E-4,-.7E-6,0
TITAN 4B R/B,2000-047B,2026-06-16T19:05:17.667168,15.10195775,.0045733,67.9881,121.6760,287.5284,72.0871,0,U,26474,999,40787,.15997E-3,.2543E-4,0
ENVISAT,2002-009A,2026-06-16T18:18:39.813120,14.39064682,.0001346,98.3834,119.0908,88.8494,334.9526,0,U,27386,999,27342,.32868E-4,.59E-6,0
IDEFIX & ARIANE 42P R/B,2002-021B,2026-06-16T20:23:51.455904,14.31081947,.0010585,98.5943,105.3367,255.0333,104.9678,0,U,27422,999,25820,.79281E-4,.165E-5,0
AQUA,2002-022A,2026-06-16T20:29:23.346816,14.62157697,.0001116,98.4277,137.1299,53.2308,33.5679,0,U,27424,999,28322,.13312E-3,.62E-5,0
CZ-4B R/B,2002-024C,2026-06-16T18:07:06.794400,14.14564389,.0051187,98.8700,220.5780,101.4413,9.2251,0,U,27432,999,24324,.40114E-4,.34E-6,0
MIDORI II (ADEOS-II),2002-056A,2026-06-16T20:35:36.288096,14.29349440,.0002206,98.7878,127.1150,77.4422,282.7006,0,U,27597,999,22446,.95728E-4,.198E-5,0
H-2A R/B,2002-056E,2026-06-16T20:54:12.383424,14.33821908,.0069172,98.3312,124.5569,225.5247,189.0108,0,U,27601,999,22832,.65672E-4,.145E-5,0
CZ-4B R/B,2003-049C,2026-06-16T17:59:50.432064,14.55099846,.0046974,98.6896,166.5790,289.9597,69.6543,0,U,28059,999,20100,.61468E-4,.217E-5,0
CZ-2C R/B,2004-012C,2026-06-16T18:43:03.808416,15.78917579,.0009372,97.7078,243.3955,285.2817,74.7413,0,U,28222,999,21983,.49561E-3,.88112E-3,0
SL-16 R/B,2004-021B,2026-06-16T21:04:56.834112,14.14608456,.0007283,71.0008,24.3372,255.2385,104.7930,0,U,28353,999,13686,-.10609E-3,-.252E-5,0
CZ-4B R/B,2004-035C,2026-06-16T19:20:15.916992,15.30622063,.0029927,97.3360,200.8835,339.3686,20.6345,0,U,28415,999,19506,.20875E-3,.6185E-4,0
CZ-2C R/B,2004-046B,2026-06-16T16:48:59.584032,14.27026391,.0138466,98.1945,76.5119,221.7182,137.3376,0,U,28480,999,12262,.36638E-4,.57E-6,0
ARIANE 5 R/B,2004-049H,2026-06-16T17:25:33.692160,14.85448490,.0084534,98.2720,339.9610,30.9106,329.7045,0,U,28499,999,16049,.64266E-4,.526E-5,0
CZ-2D R/B,2005-024B,2026-06-16T18:33:08.991072,15.69511002,.0003484,97.3473,187.1806,55.3558,304.8032,0,U,28738,999,15527,.42928E-3,.5059E-3,0
ALOS (DAICHI),2006-002A,2026-06-16T18:00:16.627680,14.70049559,.0001474,98.1323,123.3188,57.9476,302.1873,0,U,28931,999,8803,.15108E-3,.857E-5,0
H-2A R/B,2006-002B,2026-06-16T09:29:21.557760,15.18052150,.00495822,98.2562,323.1522,265.0773,94.4797,0,U,28932,999,10940,.27285308E-3,.5652E-4,0
RESURS-DK 1,2006-021A,2026-06-16T18:30:09.927072,15.13217483,.0006936,69.9342,340.6300,292.2536,67.7895,0,U,29228,999,10251,.11352E-3,.1913E-4,0
CZ-4B R/B,2006-046C,2026-06-16T20:34:29.868960,15.17782329,.0030975,97.5449,212.4655,283.9136,75.8652,0,U,29507,999,7508,.16602E-3,.3324E-4,0
CZ-2C R/B,2007-010B,2026-06-16T20:21:57.368160,14.20276137,.0059043,98.4099,276.2160,7.1156,353.0846,0,U,31114,999,99379,.49073E-4,.66E-6,0
