{
  "version": 1,
  "fetchedAt": "2026-06-17T01:49:57.093Z",
  "source": "celestrak-gp",
  "counts": {
    "station": 25,
    "satellite": 400,
    "debris": 250
  },
  "objects": [
    {
      "id": "25544",
      "name": "ISS (ZARYA)",
      "displayName": "国际空间站 ISS",
      "noradId": 25544,
      "line1": "1 25544U 98067A   26167.86697329  .00007968  00000+0  15124-3 0  9997",
      "line2": "2 25544  51.6339 301.6783 0004749 194.3570 165.7284 15.49265361571705",
      "category": "station",
      "highlight": true,
      "operator": "NASA/Roscosmos/ESA/JAXA/CSA"
    },
    {
      "id": "24298",
      "name": "SL-16 R/B",
      "noradId": 24298,
      "line1": "1 24298U 96051B   26167.74808148  .00000106  00000+0  84208-4 0  9990",
      "line2": "2 24298  70.7640 325.5779 0015434 337.5418  22.5024 14.12445706535638",
      "category": "satellite"
    },
    {
      "id": "24883",
      "name": "ORBVIEW 2 (SEASTAR)",
      "noradId": 24883,
      "line1": "1 24883U 97037A   26167.74117789  .00000155  00000+0  70005-4 0  9993",
      "line2": "2 24883  98.8686 334.7478 0003178 117.0163 243.1346 14.35553052522685",
      "category": "satellite"
    },
    {
      "id": "25400",
      "name": "SL-16 R/B",
      "noradId": 25400,
      "line1": "1 25400U 98043G   26167.87179039  .00000034  00000+0  33164-4 0  9998",
      "line2": "2 25400  98.8363 122.0282 0010944  87.1494 273.0938 14.26068563453126",
      "category": "satellite"
    },
    {
      "id": "25407",
      "name": "SL-16 R/B",
      "noradId": 25407,
      "line1": "1 25407U 98045B   26167.74147661 -.00000248  00000+0 -10095-3 0  9995",
      "line2": "2 25407  71.0118 333.2672 0009410 242.1722 117.8448 14.16203322441127",
      "category": "satellite"
    },
    {
      "id": "25732",
      "name": "CZ-4B R/B",
      "noradId": 25732,
      "line1": "1 25732U 99025C   26167.87802389  .00000038  00000+0  39092-4 0  9998",
      "line2": "2 25732  98.6484 209.7243 0038076  60.5421 113.5857 14.18283455402220",
      "category": "satellite"
    },
    {
      "id": "25860",
      "name": "OKEAN-O",
      "noradId": 25860,
      "line1": "1 25860U 99039A   26167.73926170  .00000494  00000+0  71435-4 0  9998",
      "line2": "2 25860  97.9317 226.5423 0001627  72.3818 287.7572 14.80466787449048",
      "category": "satellite"
    },
    {
      "id": "25861",
      "name": "SL-16 R/B",
      "noradId": 25861,
      "line1": "1 25861U 99039B   26167.69392828  .00000387  00000+0  55766-4 0  9991",
      "line2": "2 25861  97.9838 226.5583 0013512 298.6652  61.3202 14.81844706451523",
      "category": "satellite"
    },
    {
      "id": "25876",
      "name": "DELTA 2 R/B",
      "noradId": 25876,
      "line1": "1 25876U 99041E   26167.53840640  .00000514  00000+0  12069-3 0  9993",
      "line2": "2 25876  51.7657 266.3886 0500851 280.0985  74.3822 14.12015127376995",
      "category": "satellite"
    },
    {
      "id": "25977",
      "name": "HELIOS 1B",
      "noradId": 25977,
      "line1": "1 25977U 99064A   26167.70791909  .00001128  00000+0  12930-3 0  9991",
      "line2": "2 25977  98.1615  72.8338 0002490  92.0013 268.1487 14.88005499699988",
      "category": "satellite"
    },
    {
      "id": "25994",
      "name": "TERRA",
      "noradId": 25994,
      "line1": "1 25994U 99068A   26167.89082471  .00000327  00000+0  75513-4 0  9998",
      "line2": "2 25994  97.9457 217.4488 0001555 190.4186 284.6770 14.61102929409564",
      "category": "satellite"
    },
    {
      "id": "26070",
      "name": "SL-16 R/B",
      "noradId": 26070,
      "line1": "1 26070U 00006B   26167.64128690 -.00000070  00000+0 -11146-4 0  9994",
      "line2": "2 26070  71.0021 249.7729 0015506  23.7948 336.3889 14.15834046362566",
      "category": "satellite"
    },
    {
      "id": "26474",
      "name": "TITAN 4B R/B",
      "noradId": 26474,
      "line1": "1 26474U 00047B   26167.79534337  .00002543  00000+0  15997-3 0  9994",
      "line2": "2 26474  67.9881 121.6760 0045733 287.5284  72.0871 15.10195775407877",
      "category": "satellite"
    },
    {
      "id": "27386",
      "name": "ENVISAT",
      "noradId": 27386,
      "line1": "1 27386U 02009A   26167.76296080  .00000059  00000+0  32868-4 0  9991",
      "line2": "2 27386  98.3834 119.0908 0001346  88.8494 334.9526 14.39064682273429",
      "category": "satellite"
    },
    {
      "id": "27422",
      "name": "IDEFIX & ARIANE 42P R/B",
      "noradId": 27422,
      "line1": "1 27422U 02021B   26167.84990111  .00000165  00000+0  79281-4 0  9999",
      "line2": "2 27422  98.5943 105.3367 0010585 255.0333 104.9678 14.31081947258202",
      "category": "satellite"
    },
    {
      "id": "27424",
      "name": "AQUA",
      "noradId": 27424,
      "line1": "1 27424U 02022A   26167.85374244  .00000620  00000+0  13312-3 0  9994",
      "line2": "2 27424  98.4277 137.1299 0001116  53.2308  33.5679 14.62157697283228",
      "category": "satellite"
    },
    {
      "id": "27432",
      "name": "CZ-4B R/B",
      "noradId": 27432,
      "line1": "1 27432U 02024C   26167.75493975  .00000034  00000+0  40114-4 0  9997",
      "line2": "2 27432  98.8700 220.5780 0051187 101.4413   9.2251 14.14564389243241",
      "category": "satellite"
    },
    {
      "id": "27597",
      "name": "MIDORI II (ADEOS-II)",
      "noradId": 27597,
      "line1": "1 27597U 02056A   26167.85805889  .00000198  00000+0  95728-4 0  9998",
      "line2": "2 27597  98.7878 127.1150 0002206  77.4422 282.7006 14.29349440224465",
      "category": "satellite"
    },
    {
      "id": "27601",
      "name": "H-2A R/B",
      "noradId": 27601,
      "line1": "1 27601U 02056E   26167.87097666  .00000145  00000+0  65672-4 0  9999",
      "line2": "2 27601  98.3312 124.5569 0069172 225.5247 189.0108 14.33821908228321",
      "category": "satellite"
    },
    {
      "id": "28059",
      "name": "CZ-4B R/B",
      "noradId": 28059,
      "line1": "1 28059U 03049C   26167.74988926  .00000217  00000+0  61468-4 0  9993",
      "line2": "2 28059  98.6896 166.5790 0046974 289.9597  69.6543 14.55099846201002",
      "category": "satellite"
    },
    {
      "id": "28222",
      "name": "CZ-2C R/B",
      "noradId": 28222,
      "line1": "1 28222U 04012C   26167.77990519  .00088112  00000+0  49561-3 0  9999",
      "line2": "2 28222  97.7078 243.3955 0009372 285.2817  74.7413 15.78917579219839",
      "category": "satellite"
    },
    {
      "id": "28353",
      "name": "SL-16 R/B",
      "noradId": 28353,
      "line1": "1 28353U 04021B   26167.87843558 -.00000252  00000+0 -10609-3 0  9997",
      "line2": "2 28353  71.0008  24.3372 0007283 255.2385 104.7930 14.14608456136867",
      "category": "satellite"
    },
    {
      "id": "28415",
      "name": "CZ-4B R/B",
      "noradId": 28415,
      "line1": "1 28415U 04035C   26167.80573978  .00006185  00000+0  20875-3 0  9995",
      "line2": "2 28415  97.3360 200.8835 0029927 339.3686  20.6345 15.30622063195062",
      "category": "satellite"
    },
    {
      "id": "28480",
      "name": "CZ-2C R/B",
      "noradId": 28480,
      "line1": "1 28480U 04046B   26167.70068963  .00000057  00000+0  36638-4 0  9998",
      "line2": "2 28480  98.1945  76.5119 0138466 221.7182 137.3376 14.27026391122628",
      "category": "satellite"
    },
    {
      "id": "28499",
      "name": "ARIANE 5 R/B",
      "noradId": 28499,
      "line1": "1 28499U 04049H   26167.72608440  .00000526  00000+0  64266-4 0  9992",
      "line2": "2 28499  98.2720 339.9610 0084534  30.9106 329.7045 14.85448490160493",
      "category": "satellite"
    },
    {
      "id": "28738",
      "name": "CZ-2D R/B",
      "noradId": 28738,
      "line1": "1 28738U 05024B   26167.77302073  .00050590  00000+0  42928-3 0  9996",
      "line2": "2 28738  97.3473 187.1806 0003484  55.3558 304.8032 15.69511002155274",
      "category": "satellite"
    },
    {
      "id": "28931",
      "name": "ALOS (DAICHI)",
      "noradId": 28931,
      "line1": "1 28931U 06002A   26167.75019245  .00000857  00000+0  15108-3 0  9993",
      "line2": "2 28931  98.1323 123.3188 0001474  57.9476 302.1873 14.70049559 88038",
      "category": "satellite"
    },
    {
      "id": "28932",
      "name": "H-2A R/B",
      "noradId": 28932,
      "line1": "1 28932U 06002B   26167.39538840  .00005652  00000+0  27285-3 0  9998",
      "line2": "2 28932  98.2562 323.1522 0049582 265.0773  94.4797 15.18052150109406",
      "category": "satellite"
    },
    {
      "id": "29228",
      "name": "RESURS-DK 1",
      "noradId": 29228,
      "line1": "1 29228U 06021A   26167.77094823  .00001913  00000+0  11352-3 0  9992",
      "line2": "2 29228  69.9342 340.6300 0006936 292.2536  67.7895 15.13217483102513",
      "category": "satellite"
    },
    {
      "id": "29507",
      "name": "CZ-4B R/B",
      "noradId": 29507,
      "line1": "1 29507U 06046C   26167.85729015  .00003324  00000+0  16602-3 0  9997",
      "line2": "2 29507  97.5449 212.4655 0030975 283.9136  75.8652 15.17782329 75082",
      "category": "satellite"
    },
    {
      "id": "31114",
      "name": "CZ-2C R/B",
      "noradId": 31114,
      "line1": "1 31114U 07010B   26167.84858065  .00000066  00000+0  49073-4 0  9992",
      "line2": "2 31114  98.4099 276.2160 0059043   7.1156 353.0846 14.20276137993795",
      "category": "satellite"
    }
  ]
}